[ 
    {
        "tleLine1": "1 21820U 91086B   15120.43749386  .00000746  00000-0  14158-3 0  9999", 
        "name": "SL-14 R/B", 
        "norad_id": 21820, 
        "tleLine2": "2 21820  82.5636 217.7110 1579494 101.3044 276.9029 11.92889102 13916", 
        "state": "operational", 
        "transmitters": [], 
        "type": "visible"
    }, 
    {
        "tleLine1": "1 13637U 82106B   15099.32732115 0.00000000  00000-0  00000-0 0    08", 
        "name": "DSCS 3-1", 
        "norad_id": 13637, 
        "tleLine2": "2 13637  15.3138   8.3343 0019458  97.3842 262.8490  0.97825480    08", 
        "state": "operational", 
        "transmitters": [], 
        "type": "classfd"
    }, 
    {
        "tleLine1": "1 38245U 12016A   15311.98064534  .00000122  00000-0  00000+0 0  9996", 
        "name": "YAHSAT 1B", 
        "norad_id": 38245, 
        "tleLine2": "2 38245   0.0098 268.9363 0002797 346.6321 191.9455  1.00272394 13071", 
        "state": "operational", 
        "transmitters": [], 
        "type": "geo"
    }, 
    {
        "tleLine1": "1 38248U 12017A   15313.49962238  .00001543  00000-0  10179-3 0  9996", 
        "name": "RISAT 1", 
        "norad_id": 38248, 
        "tleLine2": "2 38248  97.5639 318.3357 0003252 237.5792 273.8801 15.08940962194910", 
        "state": "operational", 
        "transmitters": [], 
        "type": "resource, dmc"
    }, 
    {
        "tleLine1": "1 38254U 12019A   15107.36088599 0.00000000  00000-0  00000-0 0    00", 
        "name": "AEHF 2", 
        "norad_id": 38254, 
        "tleLine2": "2 38254   2.5184 318.5008 0004190 171.0581 188.9634  1.00270000    05", 
        "state": "operational", 
        "transmitters": [], 
        "type": "classfd"
    }, 
    {
        "tleLine1": "1 21873U 92006A   15070.80796630 0.00000000  00000-0  00000-0 0    03", 
        "name": "DSCS 3-5", 
        "norad_id": 21873, 
        "tleLine2": "2 21873  12.3784  38.1518 0005578 200.8967 159.0925  0.99034582    02", 
        "state": "operational", 
        "transmitters": [], 
        "type": "classfd"
    }, 
    {
        "tleLine1": "1 21876U 92008B   15119.72920878  .00000036  00000-0  21058-4 0  9992", 
        "name": "SL-8 R/B 15", 
        "norad_id": 21876, 
        "tleLine2": "2 21876  82.9266 336.4911 0035898  51.5030 352.7232 13.75553622164221", 
        "state": "operational", 
        "transmitters": [], 
        "type": "visible"
    }, 
    {
        "tleLine1": "1 21877U 92006C   15107.24929977 0.00000000  00000-0  00000-0 0    08", 
        "name": "DSCS 3-5 r2", 
        "norad_id": 21877, 
        "tleLine2": "2 21877  11.3303   3.4476 0635759 332.3075  24.4579  1.10774780    06", 
        "state": "operational", 
        "transmitters": [], 
        "type": "classfd"
    }, 
    {
        "tleLine1": "1 21397U 91039A   15120.48464743  .00001160  00000-0  11321-3 0  9992", 
        "name": "OKEAN-3", 
        "norad_id": 21397, 
        "tleLine2": "2 21397  82.5215 157.6573 0017157 324.6230  35.3849 14.91483952293666", 
        "state": "operational", 
        "transmitters": [], 
        "type": "visible"
    }, 
    {
        "tleLine1": "1 21938U 92020B   15120.20882131  .00000059  00000-0  45316-4 0  9997", 
        "name": "SL-8 R/B 16", 
        "norad_id": 21938, 
        "tleLine2": "2 21938  82.9324 218.7601 0028804 202.8281 218.8534 13.75217730156226", 
        "state": "operational", 
        "transmitters": [], 
        "type": "visible"
    }, 
    {
        "tleLine1": "1 05560U 71089A   15120.08275911  .00000442  00000-0  12015-3 0  9995", 
        "name": "ASTEX 1", 
        "norad_id": 5560, 
        "tleLine2": "2 05560  92.7118 312.7275 0018275 114.6002 245.7108 14.47609367288406", 
        "state": "operational", 
        "transmitters": [], 
        "type": "visible"
    }, 
    {
        "tleLine1": "1 38331U 12023A   15312.52387413 -.00000358  00000-0  00000+0 0  9997", 
        "name": "JCSAT-13", 
        "norad_id": 38331, 
        "tleLine2": "2 38331   0.0149 330.3393 0001910 272.2482 117.4256  1.00271586 12735", 
        "state": "operational", 
        "transmitters": [], 
        "type": "geo"
    }, 
    {
        "tleLine1": "1 38332U 12023B   15312.50492178 -.00000331  00000-0  00000+0 0  9992", 
        "name": "VINASAT-2", 
        "norad_id": 38332, 
        "tleLine2": "2 38332   0.0158 308.3768 0001987 297.1998 115.4367  1.00272966 12788", 
        "state": "operational", 
        "transmitters": [], 
        "type": "geo"
    }, 
    {
        "tleLine1": "1 21949U 92023A   15071.76630606 0.00000120  00000-0  45443-4 0    09", 
        "name": "USA 81", 
        "norad_id": 21949, 
        "tleLine2": "2 21949  85.0100 285.1443 0003000  47.8413 312.1586 14.31267261    07", 
        "state": "operational", 
        "transmitters": [], 
        "type": "classfd"
    }, 
    {
        "tleLine1": "1 38337U 12025A   15119.82322764  .00000410  00000-0  10108-3 0  9993", 
        "name": "GCOM-W1 (SHIZUKU)", 
        "norad_id": 38337, 
        "tleLine2": "2 38337  98.2058  60.4400 0001666  69.3130 290.8235 14.57096999156878", 
        "state": "operational", 
        "transmitters": [], 
        "type": "science"
    }, 
    {
        "tleLine1": "1 38338U 12025B   15120.79398748  .00000741  00000-0  15716-3 0  9994", 
        "name": "ARIRANG-3 (KOMPSAT-3)", 
        "norad_id": 38338, 
        "tleLine2": "2 38338  98.1248  59.2478 0010422 234.2142 125.8084 14.61971526157497", 
        "state": "operational", 
        "transmitters": [], 
        "type": "resource"
    }, 
    {
        "tleLine1": "1 38340U 12025D   15312.18734120  .00001354  00000-0  21101-3 0  9997", 
        "name": "HORYU 2", 
        "norad_id": 38340, 
        "tleLine2": "2 38340  98.3312 285.9944 0012049   5.1269 355.0060 14.74612096186752", 
        "state": "operational", 
        "transmitters": [
            {
                "downlink_low": 437372000, 
                "mode": "CW", 
                "description": "CW TLM"
            }
        ], 
        "type": "amateur"
    }, 
    {
        "tleLine1": "1 38342U 12026A   15312.12251085 -.00000177  00000-0  00000+0 0  9992", 
        "name": "NIMIQ 6", 
        "norad_id": 38342, 
        "tleLine2": "2 38342   0.0115 291.1726 0002115 302.1338 126.7059  1.00272571 12756", 
        "state": "operational", 
        "transmitters": [], 
        "type": "geo"
    }, 
    {
        "tleLine1": "1 29601U 06052A   15120.41547446 -.00000084  00000-0  00000+0 0  9997", 
        "name": "GPS BIIRM-3 (PRN 12)", 
        "norad_id": 29601, 
        "tleLine2": "2 29601  56.7023  14.1143 0054198  30.8112 267.0155  2.00561872 61902", 
        "state": "operational", 
        "transmitters": [], 
        "type": "sarsat, gps-ops"
    }, 
    {
        "tleLine1": "1 38352U 12028A   15313.03733763 -.00000293  00000-0  00000+0 0  9993", 
        "name": "CHINASAT 2A (ZX 2A)", 
        "norad_id": 38352, 
        "tleLine2": "2 38352   0.0568  71.3895 0003960 229.3954 218.8271  1.00270068 12801", 
        "state": "operational", 
        "transmitters": [], 
        "type": "geo"
    }, 
    {
        "tleLine1": "1 38356U 12030A   15312.40746987 -.00000058  00000-0  00000+0 0  9991", 
        "name": "INTELSAT 19 (IS-19)", 
        "norad_id": 38356, 
        "tleLine2": "2 38356   0.0217  25.7311 0002988 198.5054 135.7718  1.00272569 12675", 
        "state": "operational", 
        "transmitters": [], 
        "type": "intelsat, geo"
    }, 
    {
        "tleLine1": "1 38358U 12031A   15119.43705762  .00002968  00000-0  25046-3 0  9990", 
        "name": "NUSTAR", 
        "norad_id": 38358, 
        "tleLine2": "2 38358   6.0262 204.0692 0012925 235.2589 124.6322 14.86384318156166", 
        "state": "operational", 
        "transmitters": [], 
        "type": "science"
    }, 
    {
        "tleLine1": "1 13791U 83008A   14118.08333290 0.00005000  00000-0  60093-3 0    02", 
        "name": "NOSS 4 (A)", 
        "norad_id": 13791, 
        "tleLine2": "2 13791  63.3194   1.7797 0881216  52.4563 307.5437 13.47695863    02", 
        "state": "operational", 
        "transmitters": [], 
        "type": "classfd"
    }, 
    {
        "tleLine1": "1 22009U 92037A   15083.79764551 0.00000000  00000-0  00000-0 0    08", 
        "name": "DSCS 3-6", 
        "norad_id": 22009, 
        "tleLine2": "2 22009  10.7612  42.2168 0006759 253.4467 106.4911  0.98804175    07", 
        "state": "operational", 
        "transmitters": [], 
        "type": "classfd"
    }, 
    {
        "tleLine1": "1 22011U 92037C   15107.37331419 0.00000000  00000-0  00000-0 0    05", 
        "name": "DSCS 3-6 r2", 
        "norad_id": 22011, 
        "tleLine2": "2 22011  14.5260  11.9759 0020618 333.4973  26.3949  1.01637696    09", 
        "state": "operational", 
        "transmitters": [], 
        "type": "classfd"
    }, 
    {
        "tleLine1": "1 13844U 83008E   15058.03805037 0.00001800  00000-0  18077-3 0    02", 
        "name": "NOSS 4 (E)", 
        "norad_id": 13844, 
        "tleLine2": "2 13844  63.3130 295.1288 0904742  49.5694 310.4306 13.47915200    05", 
        "state": "operational", 
        "transmitters": [], 
        "type": "classfd"
    }, 
    {
        "tleLine1": "1 13845U 83008F   15055.14030311 0.00003000  00000-0  30321-3 0    07", 
        "name": "NOSS 4 (F)", 
        "norad_id": 13845, 
        "tleLine2": "2 13845  63.3150 301.3441 0901753  65.3468 294.6531 13.48351085    02", 
        "state": "operational", 
        "transmitters": [], 
        "type": "classfd"
    }, 
    {
        "tleLine1": "1 21426U 91043A   15120.54535654 -.00000316  00000-0 -11897-1 0  9997", 
        "name": "MOLNIYA 1-81", 
        "norad_id": 21426, 
        "tleLine2": "2 21426  63.2966 288.6242 7222249 283.8562  38.6913  2.00624464174890", 
        "state": "operational", 
        "transmitters": [], 
        "type": "molniya"
    }
]